NORAD_CAT_ID,OBJECT_NAME,OBJECT_TYPE,EPOCH,MEAN_MOTION,ECCENTRICITY,INCLINATION,RA_OF_ASC_NODE,ARG_OF_PERICENTER,MEAN_ANOMALY,BSTAR,MEAN_MOTION_DOT,MEAN_MOTION_DDOT,TLE_LINE0,TLE_LINE1,TLE_LINE2,SEMIMAJOR_AXIS,PERIOD,APOGEE,PERIGEE,DECAYED
54181.0,STARLINK-5227,PAYLOAD,2024-04-20 14:33:48,15.08794172,0.0001475,53.2164,212.8235,73.4647,286.6507,-0.0010975,-0.0001769,0.0,0 STARLINK-5227,1 54181U 22141AA  24111.60681403 -.00017690  00000-0 -10975-2 0  9995,2 54181  53.2164 212.8235 0001475  73.4647 286.6507 15.08794172 81987,6918.02,95.44,540.906,538.865,0.0
54181.0,STARLINK-5227,PAYLOAD,2024-04-21 12:49:12,15.08842441,0.0001881,53.2179,208.6501,103.7532,256.367,-1.4651e-05,-5.21e-06,0.0,0 STARLINK-5227,1 54181U 22141AA  24112.53417489 -.00000521  00000-0 -14651-4 0  9991,2 54181  53.2179 208.6501 0001881 103.7532 256.3670 15.08842441 82128,6917.873,95.437,541.039,538.437,0.0
54181.0,STARLINK-5227,PAYLOAD,2024-04-22 11:04:38,15.08834249,0.0001935,53.2172,204.4926,102.4662,257.6546,0.00079104,0.00012322,0.0,0 STARLINK-5227,1 54181U 22141AA  24113.46155300  .00012322  00000-0  79104-3 0  9998,2 54181  53.2172 204.4926 0001935 102.4662 257.6546 15.08834249 82499,6917.898,95.438,541.102,538.424,0.0
54181.0,STARLINK-5227,PAYLOAD,2024-04-23 10:55:24,15.08847479,0.0001811,53.2163,200.0304,110.0156,250.1031,0.00018596,2.673e-05,0.0,0 STARLINK-5227,1 54181U 22141AA  24114.45514574  .00002673  00000-0  18596-3 0  9996,2 54181  53.2163 200.0304 0001811 110.0156 250.1031 15.08847479 82415,6917.858,95.437,540.975,538.47,0.0
54181.0,STARLINK-5227,PAYLOAD,2024-04-24 12:21:35,15.08840127,0.0001442,53.2172,195.2793,85.6392,274.4765,1.6381e-05,-2.7e-07,0.0,0 STARLINK-5227,1 54181U 22141AA  24115.51498970 -.00000027  00000-0  16381-4 0  9998,2 54181  53.2172 195.2793 0001442  85.6392 274.4765 15.08840127 82800,6917.88,95.438,540.743,538.747,0.0
54181.0,STARLINK-5227,PAYLOAD,2024-04-25 12:12:21,15.08850448,0.0001671,53.2177,190.8126,103.7607,256.3571,7.6019e-05,9.22e-06,0.0,0 STARLINK-5227,1 54181U 22141AA  24116.50858304  .00000922  00000-0  76019-4 0  9996,2 54181  53.2177 190.8126 0001671 103.7607 256.3571 15.08850448 82723,6917.848,95.437,540.869,538.557,0.0
54181.0,STARLINK-5227,PAYLOAD,2024-04-26 12:03:08,15.08846004,0.0001838,53.2177,186.3517,61.2471,298.8706,0.00015043,2.107e-05,0.0,0 STARLINK-5227,1 54181U 22141AA  24117.50218598  .00002107  00000-0  15043-3 0  9998,2 54181  53.2177 186.3517 0001838  61.2471 298.8706 15.08846004 83106,6917.862,95.437,540.999,538.456,0.0
54181.0,STARLINK-5227,PAYLOAD,2024-04-26 13:38:31,15.08853747,0.0001639,53.218,186.0505,89.3688,270.7492,0.00021517,3.139e-05,0.0,0 STARLINK-5227,1 54181U 22141AA  24117.56841922  .00003139  00000-0  21517-3 0  9996,2 54181  53.2180 186.0505 0001639  89.3688 270.7492 15.08853747 82881,6917.838,95.437,540.837,538.57,0.0
54181.0,STARLINK-5227,PAYLOAD,2024-04-26 21:35:27,15.08847012,0.0001702,53.2161,184.5662,81.2597,278.8588,6.2063e-05,7e-06,0.0,0 STARLINK-5227,1 54181U 22141AA  24117.89962103  .00000700  00000-0  62063-4 0  9990,2 54181  53.2161 184.5662 0001702  81.2597 278.8588 15.08847012 82937,6917.859,95.437,540.901,538.547,0.0
54181.0,STARLINK-5227,PAYLOAD,2024-04-27 13:29:17,15.08864221,0.0001542,53.2161,181.5925,93.3168,266.8001,0.00029682,4.442e-05,0.0,0 STARLINK-5227,1 54181U 22141AA  24118.56200783  .00004442  00000-0  29682-3 0  9990,2 54181  53.2161 181.5925 0001542  93.3168 266.8001 15.08864221 83036,6917.806,95.436,540.738,538.605,0.0
54181.0,STARLINK-5227,PAYLOAD,2024-04-27 21:26:14,15.0883296,0.0001559,53.2167,180.1072,83.7103,276.4067,-0.00012047,-2.204e-05,0.0,0 STARLINK-5227,1 54181U 22141AA  24118.89322374 -.00002204  00000-0 -12047-3 0  9990,2 54181  53.2167 180.1072 0001559  83.7103 276.4067 15.08832960 83089,6917.902,95.438,540.845,538.688,0.0
54181.0,STARLINK-5227,PAYLOAD,2024-04-28 03:47:47,15.08834328,0.0002089,53.2146,178.9196,84.3173,275.8057,-0.0002398,-4.102e-05,0.0,0 STARLINK-5227,1 54181U 22141AA  24119.15818711 -.00004102  00000-0 -23980-3 0  9992,2 54181  53.2146 178.9196 0002089  84.3173 275.8057 15.08834328 83353,6917.898,95.438,541.208,538.318,0.0
54181.0,STARLINK-5227,PAYLOAD,2024-04-28 10:09:20,15.08823116,0.0001274,53.2142,177.7299,88.1929,271.9209,-0.00034506,-5.773e-05,0.0,0 STARLINK-5227,1 54181U 22141AA  24119.42315255 -.00005773  00000-0 -34506-3 0  9998,2 54181  53.2142 177.7299 0001274  88.1929 271.9209 15.08823116 83399,6917.932,95.439,540.678,538.916,0.0
54181.0,STARLINK-5227,PAYLOAD,2024-04-28 21:17:02,15.08832201,0.000154,53.2137,175.6461,88.1083,272.0086,-0.00013344,-2.411e-05,0.0,0 STARLINK-5227,1 54181U 22141AA  24119.88683123 -.00002411  00000-0 -13344-3 0  9993,2 54181  53.2137 175.6461 0001540  88.1083 272.0086 15.08832201 83231,6917.904,95.438,540.835,538.704,0.0
54181.0,STARLINK-5227,PAYLOAD,2024-04-29 03:38:34,15.08835626,0.0001639,53.2149,174.4565,81.4536,278.6642,3.9412e-05,3.39e-06,0.0,0 STARLINK-5227,1 54181U 22141AA  24120.15179182  .00000339  00000-0  39412-4 0  9990,2 54181  53.2149 174.4565 0001639  81.4536 278.6642 15.08835626 83508,6917.894,95.438,540.893,538.625,0.0
54181.0,STARLINK-5227,PAYLOAD,2024-04-29 10:00:07,15.08841269,0.0001628,53.2147,173.2678,79.1617,280.9558,0.00030879,4.63e-05,0.0,0 STARLINK-5227,1 54181U 22141AA  24120.41675183  .00004630  00000-0  30879-3 0  9996,2 54181  53.2147 173.2678 0001628  79.1617 280.9558 15.08841269 83311,6917.877,95.437,540.868,538.615,0.0
54181.0,STARLINK-5227,PAYLOAD,2024-04-30 09:50:54,15.08856392,0.0001634,53.2148,168.8076,73.2424,286.8747,0.00051138,7.864e-05,0.0,0 STARLINK-5227,1 54181U 22141AA  24121.41034960  .00007864  00000-0  51138-3 0  9992,2 54181  53.2148 168.8076 0001634  73.2424 286.8747 15.08856392 83691,6917.83,95.437,540.826,538.565,0.0
54181.0,STARLINK-5227,PAYLOAD,2024-05-01 03:20:08,15.08845708,0.0001609,53.2151,165.5373,74.1018,286.0151,0.00018042,2.585e-05,0.0,0 STARLINK-5227,1 54181U 22141AA  24122.13898907  .00002585  00000-0  18042-3 0  9993,2 54181  53.2151 165.5373 0001609  74.1018 286.0151 15.08845708 83803,6917.863,95.437,540.841,538.615,0.0
54181.0,STARLINK-5227,PAYLOAD,2024-05-01 09:41:41,15.08846682,0.0001678,53.2154,164.3469,77.729,282.389,0.00011306,1.512e-05,0.0,0 STARLINK-5227,1 54181U 22141AA  24122.40394849  .00001512  00000-0  11306-3 0  9994,2 54181  53.2154 164.3469 0001678  77.7290 282.3890 15.08846682 83616,6917.86,95.437,540.886,538.564,0.0
54181.0,STARLINK-5227,PAYLOAD,2024-05-01 19:13:59,15.08844119,0.0001604,53.2147,162.5621,75.2237,284.8933,5.0885e-05,5.22e-06,0.0,0 STARLINK-5227,1 54181U 22141AA  24122.80138830  .00000522  00000-0  50885-4 0  9990,2 54181  53.2147 162.5621 0001604  75.2237 284.8933 15.08844119 83675,6917.868,95.437,540.842,538.623,0.0
54181.0,STARLINK-5227,PAYLOAD,2024-05-02 03:10:55,15.08843394,0.0001602,53.2147,161.0761,78.2115,281.9056,4.8359e-05,4.82e-06,0.0,0 STARLINK-5227,1 54181U 22141AA  24123.13258855  .00000482  00000-0  48359-4 0  9995,2 54181  53.2147 161.0761 0001602  78.2115 281.9056 15.08843394 83959,6917.87,95.437,540.843,538.627,0.0
54181.0,STARLINK-5227,PAYLOAD,2024-05-02 09:32:28,15.08844747,0.0001552,53.2162,159.8871,79.0373,281.0793,6.5304e-05,7.52e-06,0.0,0 STARLINK-5227,1 54181U 22141AA  24123.39754867  .00000752  00000-0  65304-4 0  9996,2 54181  53.2162 159.8871 0001552  79.0373 281.0793 15.08844747 83763,6917.866,95.437,540.805,538.657,0.0
54181.0,STARLINK-5227,PAYLOAD,2024-05-03 03:01:43,15.08837014,0.0001539,53.2159,156.6166,81.6719,278.4447,6.1321e-05,6.88e-06,0.0,0 STARLINK-5227,1 54181U 22141AA  24124.12619270  .00000688  00000-0  61321-4 0  9999,2 54181  53.2159 156.6166 0001539  81.6719 278.4447 15.08837014 84103,6917.89,95.438,540.819,538.69,0.0
54181.0,STARLINK-5227,PAYLOAD,2024-05-03 09:23:15,15.08842473,0.000154,53.216,155.4277,83.7536,276.3632,0.00010235,1.341e-05,0.0,0 STARLINK-5227,1 54181U 22141AA  24124.39114849  .00001341  00000-0  10235-3 0  9994,2 54181  53.2160 155.4277 0001540  83.7536 276.3632 15.08842473 83913,6917.873,95.437,540.803,538.672,0.0
54181.0,STARLINK-5227,PAYLOAD,2024-05-03 18:55:34,15.0883747,0.0001512,53.2151,153.6443,92.4963,267.6203,-1.4494e-05,-5.19e-06,0.0,0 STARLINK-5227,1 54181U 22141AA  24124.78859414 -.00000519  00000-0 -14494-4 0  9991,2 54181  53.2151 153.6443 0001512  92.4963 267.6203 15.08837470 83972,6917.888,95.438,540.799,538.707,0.0
54181.0,STARLINK-5227,PAYLOAD,2024-05-04 10:49:26,15.08829044,0.0001543,53.2158,150.6709,94.4481,265.6687,-4.5421e-05,-1.011e-05,0.0,0 STARLINK-5227,1 54181U 22141AA  24125.45100452 -.00001011  00000-0 -45421-4 0  9999,2 54181  53.2158 150.6709 0001543  94.4481 265.6687 15.08829044 84302,6917.914,95.438,540.846,538.711,0.0
54181.0,STARLINK-5227,PAYLOAD,2024-05-05 10:40:13,15.0883589,0.0001523,53.216,146.2105,96.0548,264.0618,3.4818e-05,2.66e-06,0.0,0 STARLINK-5227,1 54181U 22141AA  24126.44460352  .00000266  00000-0  34818-4 0  9994,2 54181  53.2160 146.2105 0001523  96.0548 264.0618 15.08835890 84455,6917.893,95.438,540.812,538.704,0.0
54181.0,STARLINK-5227,PAYLOAD,2024-05-05 18:37:09,15.08836055,0.0001537,53.2167,144.7222,91.0525,269.0643,7.7574e-05,9.47e-06,0.0,0 STARLINK-5227,1 54181U 22141AA  24126.77580370  .00000947  00000-0  77574-4 0  9995,2 54181  53.2167 144.7222 0001537  91.0525 269.0643 15.08836055 84277,6917.892,95.438,540.821,538.694,0.0
54181.0,STARLINK-5227,PAYLOAD,2024-05-06 10:31:00,15.08841458,0.0001461,53.216,141.7476,92.3154,267.8006,0.00017603,2.515e-05,0.0,0 STARLINK-5227,1 54181U 22141AA  24127.43819979  .00002515  00000-0  17603-3 0  9998,2 54181  53.2160 141.7476 0001461  92.3154 267.8006 15.08841458 84379,6917.876,95.437,540.752,538.73,0.0
54181.0,STARLINK-5227,PAYLOAD,2024-05-06 18:27:55,15.0884641,0.0001464,53.2161,140.2609,92.4932,267.6228,0.00020201,2.929e-05,0.0,0 STARLINK-5227,1 54181U 22141AA  24127.76939657  .00002929  00000-0  20201-3 0  9997,2 54181  53.2161 140.2609 0001464  92.4932 267.6228 15.08846410 84658,6917.861,95.437,540.739,538.713,0.0
